[
    {
        "Altitude(m)": 559159.3455498319,
        "Argument of Periapsis(deg)": 0.013245982221427002,
        "Eccentricity": 0.0,
        "Inclination(deg)": 53.0,
        "Latitude(deg)": 49.91510745476749,
        "Longitude(deg)": -133.64599842503944,
        "Mean Anomaly(deg)": 72.91048573515519,
        "RAAN(deg)": 264.9802867370561,
        "Satellite Name": "Starlink Shell 1 1169",
        "Satellite Number": 1169,
        "Semi-Major Axis(m)": 6931778.249405717,
        "Time(s)": 380
    },
    {
        "Altitude(m)": 559210.8376309543,
        "Argument of Periapsis(deg)": 0.013594560700938237,
        "Eccentricity": 0.0,
        "Inclination(deg)": 53.0,
        "Latitude(deg)": 50.139548515477586,
        "Longitude(deg)": -132.7785078018189,
        "Mean Anomaly(deg)": 73.53731693871188,
        "RAAN(deg)": 264.97976796697856,
        "Satellite Name": "Starlink Shell 1 1169",
        "Satellite Number": 1169,
        "Semi-Major Axis(m)": 6931778.249405717,
        "Time(s)": 390
    },
    {
        "Altitude(m)": 559260.6758973664,
        "Argument of Periapsis(deg)": 0.013943139180449475,
        "Eccentricity": 0.0,
        "Inclination(deg)": 53.0,
        "Latitude(deg)": 50.356806780789135,
        "Longitude(deg)": -131.9026184011089,
        "Mean Anomaly(deg)": 74.16414814226859,
        "RAAN(deg)": 264.9792491969011,
        "Satellite Name": "Starlink Shell 1 1169",
        "Satellite Number": 1169,
        "Semi-Major Axis(m)": 6931778.249405717,
        "Time(s)": 400
    },
    {
        "Altitude(m)": 559308.8301074076,
        "Argument of Periapsis(deg)": 0.014291717659960712,
        "Eccentricity": 0.0,
        "Inclination(deg)": 53.0,
        "Latitude(deg)": 50.56676176405226,
        "Longitude(deg)": -131.01846750536802,
        "Mean Anomaly(deg)": 74.79097934582533,
        "RAAN(deg)": 264.97873042682363,
        "Satellite Name": "Starlink Shell 1 1169",
        "Satellite Number": 1169,
        "Semi-Major Axis(m)": 6931778.249405717,
        "Time(s)": 410
    },
    {
        "Altitude(m)": 559355.2710721776,
        "Argument of Periapsis(deg)": 0.014640296139471948,
        "Eccentricity": 0.0,
        "Inclination(deg)": 53.0,
        "Latitude(deg)": 50.76929452003927,
        "Longitude(deg)": -130.12620865612624,
        "Mean Anomaly(deg)": 75.41781054938203,
        "RAAN(deg)": 264.97821165674617,
        "Satellite Name": "Starlink Shell 1 1169",
        "Satellite Number": 1169,
        "Semi-Major Axis(m)": 6931778.249405717,
        "Time(s)": 420
    },
    {
        "Altitude(m)": 559399.9706698788,
        "Argument of Periapsis(deg)": 0.014988874618983185,
        "Eccentricity": 0.0,
        "Inclination(deg)": 53.0,
        "Latitude(deg)": 50.964287908649645,
        "Longitude(deg)": -129.22601141065616,
        "Mean Anomaly(deg)": 76.04464175293872,
        "RAAN(deg)": 264.97769288666865,
        "Satellite Name": "Starlink Shell 1 1169",
        "Satellite Number": 1169,
        "Semi-Major Axis(m)": 6931778.249405717,
        "Time(s)": 430
    },
    {
        "Altitude(m)": 559442.90185959,
        "Argument of Periapsis(deg)": 0.015337453098494424,
        "Eccentricity": 0.0,
        "Inclination(deg)": 53.0,
        "Latitude(deg)": 51.15162686550573,
        "Longitude(deg)": -128.31806104180365,
        "Mean Anomaly(deg)": 76.67147295649546,
        "RAAN(deg)": 264.9771741165912,
        "Satellite Name": "Starlink Shell 1 1169",
        "Satellite Number": 1169,
        "Semi-Major Axis(m)": 6931778.249405717,
        "Time(s)": 440
    },
    {
        "Altitude(m)": 559484.0386945176,
        "Argument of Periapsis(deg)": 0.01568603157800566,
        "Eccentricity": 0.0,
        "Inclination(deg)": 53.0,
        "Latitude(deg)": 51.331198678388304,
        "Longitude(deg)": -127.40255968884247,
        "Mean Anomaly(deg)": 77.29830416005217,
        "RAAN(deg)": 264.9766553465137,
        "Satellite Name": "Starlink Shell 1 1169",
        "Satellite Number": 1169,
        "Semi-Major Axis(m)": 6931778.249405717,
        "Time(s)": 450
    },
    {
        "Altitude(m)": 559523.3563347041,
        "Argument of Periapsis(deg)": 0.0160346100575169,
        "Eccentricity": 0.0,
        "Inclination(deg)": 53.0,
        "Latitude(deg)": 51.50289326833884,
        "Longitude(deg)": -126.4797259288232,
        "Mean Anomaly(deg)": 77.92513536360892,
        "RAAN(deg)": 264.97613657643626,
        "Satellite Name": "Starlink Shell 1 1169",
        "Satellite Number": 1169,
        "Semi-Major Axis(m)": 6931778.249405717,
        "Time(s)": 460
    },
    {
        "Altitude(m)": 559560.8310591864,
        "Argument of Periapsis(deg)": 0.016383188537028134,
        "Eccentricity": 0.0,
        "Inclination(deg)": 53.0,
        "Latitude(deg)": 51.66660347414657,
        "Longitude(deg)": -125.54979427680155,
        "Mean Anomaly(deg)": 78.55196656716561,
        "RAAN(deg)": 264.9756178063588,
        "Satellite Name": "Starlink Shell 1 1169",
        "Satellite Number": 1169,
        "Semi-Major Axis(m)": 6931778.249405717,
        "Time(s)": 470
    },
    {
        "Altitude(m)": 559596.4402776042,
        "Argument of Periapsis(deg)": 0.01673176701653937,
        "Eccentricity": 0.0,
        "Inclination(deg)": 53.0,
        "Latitude(deg)": 51.82222533882982,
        "Longitude(deg)": -124.61301612370724,
        "Mean Anomaly(deg)": 79.1787977707223,
        "RAAN(deg)": 264.97509903628134,
        "Satellite Name": "Starlink Shell 1 1169",
        "Satellite Number": 1169,
        "Semi-Major Axis(m)": 6931778.249405717,
        "Time(s)": 480
    },
    {
        "Altitude(m)": 559630.1625412257,
        "Argument of Periapsis(deg)": 0.017080345496050607,
        "Eccentricity": 0.0,
        "Inclination(deg)": 53.0,
        "Latitude(deg)": 51.96965839661558,
        "Longitude(deg)": -123.66965908246816,
        "Mean Anomaly(deg)": 79.80562897427905,
        "RAAN(deg)": 264.9745802662038,
        "Satellite Name": "Starlink Shell 1 1169",
        "Satellite Number": 1169,
        "Semi-Major Axis(m)": 6931778.249405717,
        "Time(s)": 490
    },
    {
        "Altitude(m)": 559661.9775534563,
        "Argument of Periapsis(deg)": 0.017428923975561842,
        "Eccentricity": 0.0,
        "Inclination(deg)": 53.0,
        "Latitude(deg)": 52.10880595883501,
        "Longitude(deg)": -122.7200062521616,
        "Mean Anomaly(deg)": 80.43246017783575,
        "RAAN(deg)": 264.9740614961264,
        "Satellite Name": "Starlink Shell 1 1169",
        "Satellite Number": 1169,
        "Semi-Major Axis(m)": 6931778.249405717,
        "Time(s)": 500
    },
    {
        "Altitude(m)": 559691.8661797273,
        "Argument of Periapsis(deg)": 0.01777750245507308,
        "Eccentricity": 0.0,
        "Inclination(deg)": 53.0,
        "Latitude(deg)": 52.2395753970745,
        "Longitude(deg)": -121.76435691058371,
        "Mean Anomaly(deg)": 81.0592913813925,
        "RAAN(deg)": 264.9735427260489,
        "Satellite Name": "Starlink Shell 1 1169",
        "Satellite Number": 1169,
        "Semi-Major Axis(m)": 6931778.249405717,
        "Time(s)": 510
    },
    {
        "Altitude(m)": 559719.8104568556,
        "Argument of Periapsis(deg)": 0.018126080934584315,
        "Eccentricity": 0.0,
        "Inclination(deg)": 53.0,
        "Latitude(deg)": 52.36187842183998,
        "Longitude(deg)": -120.80302560780868,
        "Mean Anomaly(deg)": 81.68612258494919,
        "RAAN(deg)": 264.9730239559714,
        "Satellite Name": "Starlink Shell 1 1169",
        "Satellite Number": 1169,
        "Semi-Major Axis(m)": 6931778.249405717,
        "Time(s)": 520
    },
    {
        "Altitude(m)": 559745.7936018094,
        "Argument of Periapsis(deg)": 0.018474659414095554,
        "Eccentricity": 0.0,
        "Inclination(deg)": 53.0,
        "Latitude(deg)": 52.47563135502341,
        "Longitude(deg)": -119.83634117205779,
        "Mean Anomaly(deg)": 82.31295378850588,
        "RAAN(deg)": 264.97250518589397,
        "Satellite Name": "Starlink Shell 1 1169",
        "Satellite Number": 1169,
        "Semi-Major Axis(m)": 6931778.249405717,
        "Time(s)": 530
    },
    {
        "Altitude(m)": 559769.8000198773,
        "Argument of Periapsis(deg)": 0.018823237893606792,
        "Eccentricity": 0.0,
        "Inclination(deg)": 53.0,
        "Latitude(deg)": 52.58075539419726,
        "Longitude(deg)": -118.864647141954,
        "Mean Anomaly(deg)": 82.93978499206263,
        "RAAN(deg)": 264.9719864158165,
        "Satellite Name": "Starlink Shell 1 1169",
        "Satellite Number": 1169,
        "Semi-Major Axis(m)": 6931778.249405717,
        "Time(s)": 540
    },
    {
        "Altitude(m)": 559791.8153123019,
        "Argument of Periapsis(deg)": 0.019171816373118027,
        "Eccentricity": 0.0,
        "Inclination(deg)": 53.0,
        "Latitude(deg)": 52.677176867145086,
        "Longitude(deg)": -117.88830059819597,
        "Mean Anomaly(deg)": 83.56661619561933,
        "RAAN(deg)": 264.971467645739,
        "Satellite Name": "Starlink Shell 1 1169",
        "Satellite Number": 1169,
        "Semi-Major Axis(m)": 6931778.249405717,
        "Time(s)": 550
    },
    {
        "Altitude(m)": 559811.8262832739,
        "Argument of Periapsis(deg)": 0.019520394852629266,
        "Eccentricity": 0.0,
        "Inclination(deg)": 53.0,
        "Latitude(deg)": 52.76482747463345,
        "Longitude(deg)": -116.90767091061456,
        "Mean Anomaly(deg)": 84.19344739917608,
        "RAAN(deg)": 264.9709488756615,
        "Satellite Name": "Starlink Shell 1 1169",
        "Satellite Number": 1169,
        "Semi-Major Axis(m)": 6931778.249405717,
        "Time(s)": 560
    }
]